{
  "type": "FeatureCollection",
  "features": [
    {
      "type": "Feature",
      "properties": {
        "name": "Bihar",
        "code": "BR",
        "type": "State"
      },
      "geometry": {
        "type": "Polygon",
        "coordinates": [
          [
            [
              83.32,
              25.1
            ],
            [
              83.88,
              25.45
            ],
            [
              84.15,
              25.68
            ],
            [
              83.85,
              26.15
            ],
            [
              84.1,
              26.65
            ],
            [
              84.35,
              27.25
            ],
            [
              84.85,
              27.42
            ],
            [
              85.45,
              26.92
            ],
            [
              86.15,
              26.85
            ],
            [
              86.9,
              26.6
            ],
            [
              87.5,
              26.45
            ],
            [
              88.15,
              26.35
            ],
            [
              88.25,
              26.05
            ],
            [
              87.82,
              25.65
            ],
            [
              87.95,
              25.25
            ],
            [
              87.65,
              24.85
            ],
            [
              86.85,
              24.62
            ],
            [
              86.35,
              24.55
            ],
            [
              85.75,
              24.58
            ],
            [
              85.05,
              24.52
            ],
            [
              84.45,
              24.55
            ],
            [
              83.55,
              24.6
            ],
            [
              83.32,
              25.1
            ]
          ]
        ]
      }
    },
    {
      "type": "Feature",
      "properties": {
        "name": "Jharkhand",
        "code": "JH",
        "type": "State"
      },
      "geometry": {
        "type": "Polygon",
        "coordinates": [
          [
            [
              83.35,
              24.55
            ],
            [
              84.45,
              24.55
            ],
            [
              85.05,
              24.52
            ],
            [
              85.75,
              24.58
            ],
            [
              86.35,
              24.55
            ],
            [
              86.85,
              24.62
            ],
            [
              87.65,
              24.85
            ],
            [
              87.85,
              24.25
            ],
            [
              87.55,
              23.65
            ],
            [
              86.85,
              23.45
            ],
            [
              86.75,
              22.85
            ],
            [
              86.35,
              22.15
            ],
            [
              85.65,
              22.02
            ],
            [
              84.75,
              22.35
            ],
            [
              84.15,
              22.45
            ],
            [
              83.85,
              22.85
            ],
            [
              83.35,
              23.45
            ],
            [
              83.55,
              24.15
            ],
            [
              83.35,
              24.55
            ]
          ]
        ]
      }
    },
    {
      "type": "Feature",
      "properties": {
        "name": "West Bengal",
        "code": "WB",
        "type": "State"
      },
      "geometry": {
        "type": "Polygon",
        "coordinates": [
          [
            [
              87.65,
              24.85
            ],
            [
              87.95,
              25.25
            ],
            [
              87.82,
              25.65
            ],
            [
              88.25,
              26.05
            ],
            [
              88.15,
              26.35
            ],
            [
              88.55,
              26.65
            ],
            [
              88.92,
              26.75
            ],
            [
              89.85,
              26.45
            ],
            [
              89.65,
              26.15
            ],
            [
              88.85,
              25.55
            ],
            [
              88.85,
              24.85
            ],
            [
              88.55,
              23.85
            ],
            [
              88.92,
              22.45
            ],
            [
              89.15,
              21.65
            ],
            [
              88.15,
              21.55
            ],
            [
              87.45,
              21.75
            ],
            [
              86.85,
              22.35
            ],
            [
              86.75,
              22.85
            ],
            [
              86.85,
              23.45
            ],
            [
              87.55,
              23.65
            ],
            [
              87.85,
              24.25
            ],
            [
              87.65,
              24.85
            ]
          ]
        ]
      }
    },
    {
      "type": "Feature",
      "properties": {
        "name": "Uttar Pradesh",
        "code": "UP",
        "type": "State"
      },
      "geometry": {
        "type": "Polygon",
        "coordinates": [
          [
            [
              77.15,
              28.85
            ],
            [
              77.85,
              29.85
            ],
            [
              78.65,
              30.35
            ],
            [
              79.95,
              29.65
            ],
            [
              80.85,
              28.75
            ],
            [
              81.85,
              28.15
            ],
            [
              83.15,
              27.45
            ],
            [
              84.35,
              27.25
            ],
            [
              84.1,
              26.65
            ],
            [
              83.85,
              26.15
            ],
            [
              84.15,
              25.68
            ],
            [
              83.88,
              25.45
            ],
            [
              83.32,
              25.1
            ],
            [
              83.05,
              24.15
            ],
            [
              82.65,
              23.85
            ],
            [
              81.85,
              24.45
            ],
            [
              80.55,
              25.15
            ],
            [
              79.25,
              24.85
            ],
            [
              78.25,
              24.45
            ],
            [
              78.15,
              25.65
            ],
            [
              77.45,
              27.15
            ],
            [
              77.15,
              28.85
            ]
          ]
        ]
      }
    },
    {
      "type": "Feature",
      "properties": {
        "name": "Odisha",
        "code": "OD",
        "type": "State"
      },
      "geometry": {
        "type": "Polygon",
        "coordinates": [
          [
            [
              81.45,
              18.25
            ],
            [
              82.55,
              17.85
            ],
            [
              83.85,
              18.85
            ],
            [
              84.85,
              19.25
            ],
            [
              85.65,
              19.75
            ],
            [
              86.85,
              20.85
            ],
            [
              87.45,
              21.75
            ],
            [
              86.85,
              22.35
            ],
            [
              86.35,
              22.15
            ],
            [
              85.65,
              22.02
            ],
            [
              84.75,
              22.35
            ],
            [
              84.15,
              22.45
            ],
            [
              83.85,
              22.15
            ],
            [
              82.85,
              21.65
            ],
            [
              82.45,
              20.45
            ],
            [
              81.85,
              19.85
            ],
            [
              81.45,
              18.25
            ]
          ]
        ]
      }
    }
  ]
}